BEIDOU-2 IGSO-1 (C06)   
1 36828U 10036A   24107.09773064 -.00000114  00000+0  00000+0 0  9992
2 36828  54.2443 170.1322 0040088 199.8970 333.3797  1.00245293 50264
BEIDOU-2 G4 (C04)       
1 37210U 10057A   24112.85917505 -.00000103  00000+0  00000+0 0  9999
2 37210   1.7111  67.9063 0003650 204.5532  47.2852  1.00273351 49409
BEIDOU-2 IGSO-2 (C07)   
1 37256U 10068A   24112.89493933 -.00000206  00000+0  00000+0 0  9993
2 37256  48.9850 281.5005 0032918 208.7871 150.3851  1.00268492 48902
BEIDOU-2 IGSO-3 (C08)   
1 37384U 11013A   24112.78574323 -.00000196  00000+0  00000+0 0  9995
2 37384  61.2758  47.6554 0025758 180.4651  13.9253  1.00273264 47772
BEIDOU-2 IGSO-4 (C09)   
1 37763U 11038A   24112.91185601 -.00000024  00000+0  00000+0 0  9995
2 37763  54.5507 172.6741 0123513 228.3718 233.8798  1.00271301 46766
BEIDOU-2 IGSO-5 (C10)   
1 37948U 11073A   24112.80041977 -.00000152  00000+0  00000+0 0  9996
2 37948  49.1162 281.1846 0095117 219.0818  92.7384  1.00264487 45248
BEIDOU-2 G5 (C05)       
1 38091U 12008A   24112.91060538  .00000065  00000+0  00000+0 0  9993
2 38091   1.9397  70.3379 0009188 262.7710 263.9605  1.00277051 44486
BEIDOU-2 M3 (C11)       
1 38250U 12018A   24113.08947518 -.00000067  00000+0  00000+0 0  9995
2 38250  56.3743 331.2067 0020840 266.7873  93.0198  1.86231470 81655
BEIDOU-2 M4 (C12)       
1 38251U 12018B   24113.01991464 -.00000066  00000+0  00000+0 0  9997
2 38251  56.2822 330.4851 0011807 272.2204  87.6894  1.86232200 81652
BEIDOU-2 M6 (C14)       
1 38775U 12050B   24113.26625890  .00000018  00000+0  00000+0 0  9994
2 38775  55.8712  89.0308 0014802 331.6368  28.2646  1.86231213 79026
BEIDOU-2 G6 (C02)       
1 38953U 12059A   24113.05880485 -.00000166  00000+0  00000+0 0  9996
2 38953   2.4169  80.8340 0010937 307.5176 287.4788  1.00273987 42168
BEIDOU-3S IGSO-1S (C31) 
1 40549U 15019A   24112.98953487 -.00000154  00000+0  00000+0 0  9990
2 40549  50.6771 304.8487 0036348 191.1895 164.9483  1.00261918 33180
BEIDOU-3S M2S (C58)     
1 40748U 15037A   24113.22064793 -.00000066  00000+0  00000+0 0  9994
2 40748  55.5155 328.9340 0007907 260.6958  99.2573  1.86233299 59483
BEIDOU-3S M1S (C57)     
1 40749U 15037B   24112.41707625 -.00000068  00000+0  00000+0 0  9995
2 40749  55.5190 328.9482 0005350 359.3368   0.7056  1.86233141 59479
BEIDOU-3S IGSO-2S (C56) 
1 40938U 15053A   24112.79711885 -.00000155  00000+0  00000+0 0  9994
2 40938  50.4492 268.0583 0050320 188.0030 137.8316  1.00275835 31466
BEIDOU-2 IGSO-6 (C13)   
1 41434U 16021A   24112.78672647 -.00000169  00000+0  00000+0 0  9998
2 41434  59.0997  45.9189 0048883 225.1128 318.3253  1.00282166 29591
BEIDOU-2 G7 (C03)       
1 41586U 16037A   24113.42201160 -.00000342  00000+0  00000+0 0  9996
2 41586   1.7733  68.8927 0009332 326.7354  77.7564  1.00268260 28904
BEIDOU-3 M1 (C19)       
1 43001U 17069A   24112.49541166  .00000022  00000+0  00000+0 0  9999
2 43001  56.0211  89.1456 0012505 302.4433  57.4211  1.86231612 43951
BEIDOU-3 M2 (C20)       
1 43002U 17069B   24112.43252245  .00000022  00000+0  00000+0 0  9991
2 43002  56.0203  89.1837 0010229 320.9690  38.9427  1.86231149 43944
BEIDOU-3 M7 (C27)       
1 43107U 18003A   24111.10830369 -.00000072  00000+0  00000+0 0  9994
2 43107  54.9745 329.6221 0005159  63.8044 296.2911  1.86232596 42672
BEIDOU-3 M8 (C28)       
1 43108U 18003B   24113.19607308 -.00000068  00000+0  00000+0 0  9996
2 43108  54.9660 329.5361 0002502 276.2555  83.7585  1.86231046 42720
BEIDOU-3 M4 (C22)       
1 43207U 18018A   24112.56347439  .00000022  00000+0  00000+0 0  9997
2 43207  55.9799  89.2344 0007354 339.5344  20.4213  1.86231529 42096
BEIDOU-3 M3 (C21)       
1 43208U 18018B   24113.16698610  .00000019  00000+0  00000+0 0  9991
2 43208  55.9799  89.2187 0010257 311.3564  48.5381  1.86231530 42101
BEIDOU-3 M9 (C29)       
1 43245U 18029A   24112.31487632 -.00000068  00000+0  00000+0 0  9995
2 43245  54.8592 327.2937 0000863  33.1177 326.9286  1.86232911 41245
BEIDOU-3 M10 (C30)      
1 43246U 18029B   24112.24463063 -.00000068  00000+0  00000+0 0  9990
2 43246  54.8566 327.3242 0004721  16.6926 343.3639  1.86233014 41220
BEIDOU-2 IGSO-7 (C16)   
1 43539U 18057A   24112.71396036 -.00000082  00000+0  00000+0 0  9999
2 43539  55.1338 169.8616 0073914 232.8384 177.6530  1.00270595 21250
BEIDOU-3 M5 (C23)       
1 43581U 18062A   24113.00370521 -.00000001  00000+0  00000+0 0  9997
2 43581  54.1384 209.0482 0003155 277.6554  82.3310  1.86228868 38998
BEIDOU-3 M6 (C24)       
1 43582U 18062B   24112.86981613 -.00000003  00000+0  00000+0 0  9993
2 43582  54.1379 209.0422 0004611  24.3051 335.7380  1.86229629 38992
BEIDOU-3 M12 (C26)      
1 43602U 18067A   24113.34074633  .00000006  00000+0  00000+0 0  9992
2 43602  54.2279 207.7023 0006979  24.7442 335.3169  1.86231820 38485
BEIDOU-3 M11 (C25)      
1 43603U 18067B   24112.40075245 -.00000008  00000+0  00000+0 0  9992
2 43603  54.2254 207.6994 0003782  15.1186 344.9141  1.86231664 38496
BEIDOU-3 M13 (C32)      
1 43622U 18072A   24112.36123938  .00000021  00000+0  00000+0 0  9991
2 43622  55.9505  88.7740 0008983 300.6671  59.2298  1.86231501 38006
BEIDOU-3 M14 (C33)      
1 43623U 18072B   24113.30059148  .00000018  00000+0  00000+0 0  9994
2 43623  55.9532  88.7358 0006750 319.9951  39.9367  1.86231503 38011
BEIDOU-3 M16 (C35)      
1 43647U 18078A   24112.38979094 -.00000068  00000+0  00000+0 0  9990
2 43647  54.7555 327.3944 0008070  20.5404 339.5329  1.86232435 37502
BEIDOU-3 M15 (C34)      
1 43648U 18078B   24113.05591652 -.00000067  00000+0  00000+0 0  9995
2 43648  54.7512 327.3745 0005202  30.6592 329.4117  1.86232325 37544
BEIDOU-3 G1 (C59)       
1 43683U 18085A   24112.99823715 -.00000267  00000+0  00000+0 0  9994
2 43683   2.0537 111.8058 0003950 342.3459 255.8416  1.00271329 20170
BEIDOU-3 M17 (C36)      
1 43706U 18093A   24112.66841220 -.00000006  00000+0  00000+0 0  9995
2 43706  54.2215 208.9937 0008320 281.1506  78.7761  1.86228497 36894
BEIDOU-3 M18 (C37)      
1 43707U 18093B   24111.99723867 -.00000016  00000+0  00000+0 0  9998
2 43707  54.2222 209.0082 0006590 313.1977  46.7635  1.86229949 36877
BEIDOU-3 IGSO-1 (C38)   
1 44204U 19023A   24112.77808891 -.00000225  00000+0  00000+0 0  9995
2 44204  57.5637  45.8144 0019374 214.9403 348.7134  1.00266648 18453
BEIDOU-2 G8 (C01)       
1 44231U 19027A   24112.92766182 -.00000238  00000+0  00000+0 0  9996
2 44231   1.8098  73.4999 0002542 175.6600  79.8216  1.00273217 18196
BEIDOU-3 IGSO-2 (C39)   
1 44337U 19035A   24112.71577286 -.00000078  00000+0  00000+0 0  9996
2 44337  55.1682 165.7634 0032856 207.9822 212.6680  1.00259095 17785
BEIDOU-3 M24 (C46)      
1 44542U 19061A   24112.60416690 -.00000007  00000+0  00000+0 0  9994
2 44542  54.4491 209.2708 0007267 356.2053   3.8083  1.86231183 31146
BEIDOU-3 M23 (C45)      
1 44543U 19061B   24112.77620104 -.00000004  00000+0  00000+0 0  9997
2 44543  54.4474 209.2342 0004339 340.5650  46.9795  1.86231741 31157
BEIDOU-3 IGSO-3 (C40)   
1 44709U 19073A   24111.89015095 -.00000175  00000+0  00000+0 0  9992
2 44709  56.1481 289.3267 0037000 179.6590 180.2868  1.00266991 16560
BEIDOU-3 M22 (C44)      
1 44793U 19078A   24112.98697074 -.00000067  00000+0  00000+0 0  9994
2 44793  54.6030 327.3128 0007104  27.6023 332.4757  1.86232285 30017
BEIDOU-3 M21 (C43)      
1 44794U 19078B   24113.11690350 -.00000067  00000+0  00000+0 0  9991
2 44794  54.5768 327.2856 0004929  23.7789 336.2839  1.86232757 30017
BEIDOU-3 M19 (C41)      
1 44864U 19090A   24112.54861578  .00000021  00000+0  00000+0 0  9990
2 44864  55.8849  88.9419 0019759 283.0921 249.0188  1.86231884 29589
BEIDOU-3 M20 (C42)      
1 44865U 19090B   24113.33864973  .00000018  00000+0  00000+0 0  9997
2 44865  55.8873  88.9490 0017688 295.0406 136.4993  1.86231806 29572
BEIDOU-3 G2 (C60)       
1 45344U 20017A   24112.91478248 -.00000133  00000+0  00000+0 0  9999
2 45344   2.2509  27.3388 0001135 346.1633 246.3120  1.00271144 15371
BEIDOU-3 G3 (C61)       
1 45807U 20040A   24113.42201160 -.00000344  00000+0  00000+0 0  9997
2 45807   0.6919  34.1907 0005594 303.4089 135.8684  1.00273793 14209
BEIDOU-3 G4             
1 56564U 23066A   24112.85917505 -.00000107  00000+0  00000+0 0  9990
2 56564   2.2647 288.2225 0004064 188.4342 203.1182  1.00273006  3517
BEIDOU-3 M25            
1 58654U 23207A   24113.19952513  .00000017  00000+0  00000+0 0  9994
2 58654  55.0678  88.9752 0004911 293.1620  66.7691  1.86232355  2202
BEIDOU-3 M26            
1 58655U 23207B   24112.46142902  .00000019  00000+0  00000+0 0  9999
2 58655  55.0690  88.9857 0005465 277.8602  82.0636  1.86231899  2175
